{
  "type": "FeatureCollection",
  "features": [
    {
      "type": "Feature",
      "properties": {
        "norad_id": 30080,
        "name": "FENGYUN 1C DEB",
        "group": "fengyun-1c-debris",
        "lat": 67.00016858405516,
        "lon": -61.55056173784944,
        "alt_km": 756.0059388139271,
        "timestamp": "2025-12-04T19:33:59.877270+00:00",
        "meta_object_name": "FENGYUN 1C DEB",
        "meta_object_id": "1999-025QH",
        "meta_epoch": "2025-12-03T16:50:31.319232",
        "meta_mean_motion": 14.10804881,
        "meta_eccentricity": 0.01339789,
        "meta_inclination": 98.6974,
        "meta_ra_of_asc_node": 318.5094,
        "meta_arg_of_pericenter": 86.0655,
        "meta_mean_anomaly": 90.6529,
        "meta_ephemeris_type": 0,
        "meta_classification_type": "U",
        "meta_norad_cat_id": 30080,
        "meta_element_set_no": 999,
        "meta_rev_at_epoch": 97110,
        "meta_bstar": 0.00043186495,
        "meta_mean_motion_dot": 8e-06,
        "meta_mean_motion_ddot": 0,
        "tle_line1": "1 30080U 99025QH  25337.70175138  .00000800  00000+0  43186-3 0  9990",
        "tle_line2": "2 30080  98.6974 318.5094 0133978  86.0655  90.6529 14.10804881971101"
      },
      "geometry": {
        "type": "Point",
        "coordinates": [
          -61.55056173784944,
          67.00016858405516
        ]
      }
    },
    {
      "type": "Feature",
      "properties": {
        "norad_id": 30081,
        "name": "FENGYUN 1C DEB",
        "group": "fengyun-1c-debris",
        "lat": -77.80380265539769,
        "lon": 108.68550317095188,
        "alt_km": 915.7173920972109,
        "timestamp": "2025-12-04T19:33:59.877279+00:00",
        "meta_object_name": "FENGYUN 1C DEB",
        "meta_object_id": "1999-025QJ",
        "meta_epoch": "2025-12-03T23:46:36.831648",
        "meta_mean_motion": 13.98260111,
        "meta_eccentricity": 0.00762126,
        "meta_inclination": 98.9223,
        "meta_ra_of_asc_node": 334.5038,
        "meta_arg_of_pericenter": 3.2513,
        "meta_mean_anomaly": 70.8449,
        "meta_ephemeris_type": 0,
        "meta_classification_type": "U",
        "meta_norad_cat_id": 30081,
        "meta_element_set_no": 999,
        "meta_rev_at_epoch": 96232,
        "meta_bstar": 0.0006051365,
        "meta_mean_motion_dot": 8.41e-06,
        "meta_mean_motion_ddot": 0,
        "tle_line1": "1 30081U 99025QJ  25337.99070407  .00000841  00000+0  60514-3 0  9994",
        "tle_line2": "2 30081  98.9223 334.5038 0076212   3.2513  70.8449 13.98260111962321"
      },
      "geometry": {
        "type": "Point",
        "coordinates": [
          108.68550317095188,
          -77.80380265539769
        ]
      }
    },
    {
      "type": "Feature",
      "properties": {
        "norad_id": 30082,
        "name": "FENGYUN 1C DEB",
        "group": "fengyun-1c-debris",
        "lat": 64.25141682713928,
        "lon": -113.47214627307757,
        "alt_km": 544.9459077162746,
        "timestamp": "2025-12-04T19:33:59.877288+00:00",
        "meta_object_name": "FENGYUN 1C DEB",
        "meta_object_id": "1999-025QK",
        "meta_epoch": "2025-12-04T06:35:19.677984",
        "meta_mean_motion": 15.14489489,
        "meta_eccentricity": 0.00694331,
        "meta_inclination": 98.8179,
        "meta_ra_of_asc_node": 264.6771,
        "meta_arg_of_pericenter": 194.9729,
        "meta_mean_anomaly": 164.9444,
        "meta_ephemeris_type": 0,
        "meta_classification_type": "U",
        "meta_norad_cat_id": 30082,
        "meta_element_set_no": 999,
        "meta_rev_at_epoch": 1165,
        "meta_bstar": 0.002939837,
        "meta_mean_motion_dot": 0.00057781,
        "meta_mean_motion_ddot": 0,
        "tle_line1": "1 30082U 99025QK  25338.27453331  .00057781  00000+0  29398-2 0  9997",
        "tle_line2": "2 30082  98.8179 264.6771 0069433 194.9729 164.9444 15.14489489 11654"
      },
      "geometry": {
        "type": "Point",
        "coordinates": [
          -113.47214627307757,
          64.25141682713928
        ]
      }
    },
    {
      "type": "Feature",
      "properties": {
        "norad_id": 30086,
        "name": "FENGYUN 1C DEB",
        "group": "fengyun-1c-debris",
        "lat": -71.60460873343212,
        "lon": 164.507896827471,
        "alt_km": 893.5338818438076,
        "timestamp": "2025-12-04T19:33:59.877297+00:00",
        "meta_object_name": "FENGYUN 1C DEB",
        "meta_object_id": "1999-025QP",
        "meta_epoch": "2025-12-04T01:31:12.278784",
        "meta_mean_motion": 14.03812275,
        "meta_eccentricity": 0.00615786,
        "meta_inclination": 98.9108,
        "meta_ra_of_asc_node": 11.9187,
        "meta_arg_of_pericenter": 158.2888,
        "meta_mean_anomaly": 256.8182,
        "meta_ephemeris_type": 0,
        "meta_classification_type": "U",
        "meta_norad_cat_id": 30086,
        "meta_element_set_no": 999,
        "meta_rev_at_epoch": 96574,
        "meta_bstar": 0.00049050522,
        "meta_mean_motion_dot": 7.43e-06,
        "meta_mean_motion_ddot": 0,
        "tle_line1": "1 30086U 99025QP  25338.06333656  .00000743  00000+0  49051-3 0  9990",
        "tle_line2": "2 30086  98.9108  11.9187 0061578 158.2888 256.8182 14.03812275965744"
      },
      "geometry": {
        "type": "Point",
        "coordinates": [
          164.507896827471,
          -71.60460873343212
        ]
      }
    },
    {
      "type": "Feature",
      "properties": {
        "norad_id": 30087,
        "name": "FENGYUN 1C DEB",
        "group": "fengyun-1c-debris",
        "lat": -28.803705912877643,
        "lon": 15.926446781774223,
        "alt_km": 942.2600669220201,
        "timestamp": "2025-12-04T19:33:59.877306+00:00",
        "meta_object_name": "FENGYUN 1C DEB",
        "meta_object_id": "1999-025QQ",
        "meta_epoch": "2025-12-04T01:26:50.078112",
        "meta_mean_motion": 14.35676158,
        "meta_eccentricity": 0.02300803,
        "meta_inclination": 98.3813,
        "meta_ra_of_asc_node": 10.5424,
        "meta_arg_of_pericenter": 147.1942,
        "meta_mean_anomaly": 244.2644,
        "meta_ephemeris_type": 0,
        "meta_classification_type": "U",
        "meta_norad_cat_id": 30087,
        "meta_element_set_no": 999,
        "meta_rev_at_epoch": 98571,
        "meta_bstar": 0.00049471709,
        "meta_mean_motion_dot": 1.882e-05,
        "meta_mean_motion_ddot": 0,
        "tle_line1": "1 30087U 99025QQ  25338.06030183  .00001882  00000+0  49472-3 0  9992",
        "tle_line2": "2 30087  98.3813  10.5424 0230080 147.1942 244.2644 14.35676158985711"
      },
      "geometry": {
        "type": "Point",
        "coordinates": [
          15.926446781774223,
          -28.803705912877643
        ]
      }
    },
    {
      "type": "Feature",
      "properties": {
        "norad_id": 30088,
        "name": "FENGYUN 1C DEB",
        "group": "fengyun-1c-debris",
        "lat": -41.19799967664854,
        "lon": 135.94397361913394,
        "alt_km": 684.1310830768107,
        "timestamp": "2025-12-04T19:33:59.877315+00:00",
        "meta_object_name": "FENGYUN 1C DEB",
        "meta_object_id": "1999-025QR",
        "meta_epoch": "2025-12-03T22:42:24.761952",
        "meta_mean_motion": 14.35869996,
        "meta_eccentricity": 0.02008551,
        "meta_inclination": 98.3531,
        "meta_ra_of_asc_node": 322.4908,
        "meta_arg_of_pericenter": 273.9333,
        "meta_mean_anomaly": 139.2535,
        "meta_ephemeris_type": 0,
        "meta_classification_type": "U",
        "meta_norad_cat_id": 30088,
        "meta_element_set_no": 999,
        "meta_rev_at_epoch": 98546,
        "meta_bstar": 0.00084001142,
        "meta_mean_motion_dot": 3.013e-05,
        "meta_mean_motion_ddot": 0,
        "tle_line1": "1 30088U 99025QR  25337.94611993  .00003013  00000+0  84001-3 0  9998",
        "tle_line2": "2 30088  98.3531 322.4908 0200855 273.9333 139.2535 14.35869996985468"
      },
      "geometry": {
        "type": "Point",
        "coordinates": [
          135.94397361913394,
          -41.19799967664854
        ]
      }
    },
    {
      "type": "Feature",
      "properties": {
        "norad_id": 30089,
        "name": "FENGYUN 1C DEB",
        "group": "fengyun-1c-debris",
        "lat": 53.25709303318668,
        "lon": -128.09556799675568,
        "alt_km": 838.0980010058729,
        "timestamp": "2025-12-04T19:33:59.877323+00:00",
        "meta_object_name": "FENGYUN 1C DEB",
        "meta_object_id": "1999-025QS",
        "meta_epoch": "2025-12-04T04:56:07.137888",
        "meta_mean_motion": 14.30288285,
        "meta_eccentricity": 0.00730596,
        "meta_inclination": 98.9029,
        "meta_ra_of_asc_node": 243.4012,
        "meta_arg_of_pericenter": 235.1277,
        "meta_mean_anomaly": 281.8775,
        "meta_ephemeris_type": 0,
        "meta_classification_type": "U",
        "meta_norad_cat_id": 30089,
        "meta_element_set_no": 999,
        "meta_rev_at_epoch": 98357,
        "meta_bstar": 0.00050154779,
        "meta_mean_motion_dot": 1.293e-05,
        "meta_mean_motion_ddot": 0,
        "tle_line1": "1 30089U 99025QS  25338.20563817  .00001293  00000+0  50155-3 0  9991",
        "tle_line2": "2 30089  98.9029 243.4012 0073059 235.1277 281.8775 14.30288285983577"
      },
      "geometry": {
        "type": "Point",
        "coordinates": [
          -128.09556799675568,
          53.25709303318668
        ]
      }
    }
  ]
}